FLOCK 3P-46             
1 42031U 17008CM  17073.88280425  .00001198  00000-0  55433-4 0  9994
2 42031  97.5077 135.4743 0008446 171.6102 188.5262 15.22073053  4176
